ONEWEB-0350             
1 49214U 21083AE  25353.41774470 -.00000237  00000+0 -68499-3 0  9998
2 49214  87.8976 355.9507 0001458  95.3156 264.8140 13.13470823207330
ONEWEB-0351             
1 49215U 21083AF  25353.41257014  .00000073  00000+0  14870-3 0  9999
2 49215  87.9211 310.2905 0001909  52.6357 307.4950 13.20769303213040
ONEWEB-0352             
1 49216U 21083AG  25353.70298868  .00000296  00000+0  77527-3 0  9999
2 49216  87.8966 355.9159 0001719  75.7858 284.3462 13.13471190207461
ONEWEB-0354             
1 49217U 21083AH  25353.58947262  .00000108  00000+0  23364-3 0  9997
2 49217  87.9211 310.2545 0001604  86.2761 273.8556 13.20771011213100
ONEWEB-0355             
1 49218U 21083AJ  25353.73190015 -.00000333  00000+0 -94617-3 0  9992
2 49218  87.8967 355.9235 0001567  85.1024 275.0284 13.13471032207341
ONEWEB-0357             
1 49219U 21083AK  25353.58631219  .00000113  00000+0  24507-3 0  9997
2 49219  87.9210 310.2512 0001750  77.0177 283.1151 13.20770150213104
ONEWEB-0332             
1 49279U 21090A   25353.42842946 -.00000126  00000+0 -37318-3 0  9995
2 49279  87.8986 325.5305 0002020  78.5888 281.5469 13.14504042203969
ONEWEB-0347             
1 49280U 21090B   25353.65261120 -.00000029  00000+0 -10357-3 0  9997
2 49280  87.9203 310.2481 0002141  79.6956 280.4419 13.20770090207346
